[{"OBJECT_NAME":"STARLINK-32927","OBJECT_ID":"2025-037T","EPOCH":"2026-03-09T22:09:31.516416","MEAN_MOTION":14.98326947,"ECCENTRICITY":0.00029684,"INCLINATION":70.0035,"RA_OF_ASC_NODE":354.001,"ARG_OF_PERICENTER":263.37,"MEAN_ANOMALY":96.7121,"EPHEMERIS_TYPE":0,"CLASSIFICATION_TYPE":"U","NORAD_CAT_ID":63094,"ELEMENT_SET_NO":999,"REV_AT_EPOCH":5858,"BSTAR":-0.00010734745,"MEAN_MOTION_DOT":-1.373e-5,"MEAN_MOTION_DDOT":0},{"OBJECT_NAME":"PSLV DEB","OBJECT_ID":"2001-049BU","EPOCH":"2026-03-09T17:49:30.118080","MEAN_MOTION":14.92717498,"ECCENTRICITY":0.00287316,"INCLINATION":98.0611,"RA_OF_ASC_NODE":133.044,"ARG_OF_PERICENTER":17.6514,"MEAN_ANOMALY":97.6538,"EPHEMERIS_TYPE":0,"CLASSIFICATION_TYPE":"U","NORAD_CAT_ID":27124,"ELEMENT_SET_NO":999,"REV_AT_EPOCH":30489,"BSTAR":0.00040608061,"MEAN_MOTION_DOT":4.163e-5,"MEAN_MOTION_DDOT":0}]
